[{"OBJECT_NAME":"SHIYAN-6 01 (SY-6 01)","OBJECT_ID":"2018-094B","EPOCH":"2026-03-09T23:04:36.967872","MEAN_MOTION":15.28649156,"ECCENTRICITY":0.00144834,"INCLINATION":97.3669,"RA_OF_ASC_NODE":84.0964,"ARG_OF_PERICENTER":135.6758,"MEAN_ANOMALY":224.5644,"EPHEMERIS_TYPE":0,"CLASSIFICATION_TYPE":"U","NORAD_CAT_ID":43711,"ELEMENT_SET_NO":999,"REV_AT_EPOCH":40632,"BSTAR":0.00024768444,"MEAN_MOTION_DOT":6.847e-5,"MEAN_MOTION_DDOT":0},{"OBJECT_NAME":"STARLINK-34855","OBJECT_ID":"2025-192N","EPOCH":"2026-03-09T17:20:13.620768","MEAN_MOTION":15.30192662,"ECCENTRICITY":0.00014519,"INCLINATION":53.1598,"RA_OF_ASC_NODE":232.5949,"ARG_OF_PERICENTER":55.9663,"MEAN_ANOMALY":304.1475,"EPHEMERIS_TYPE":0,"CLASSIFICATION_TYPE":"U","NORAD_CAT_ID":65416,"ELEMENT_SET_NO":999,"REV_AT_EPOCH":2938,"BSTAR":0.0010857961,"MEAN_MOTION_DOT":0.0003193,"MEAN_MOTION_DDOT":0}]
